GLOBALSTAR M068         
1 32266U 07048D   26012.76079925 -.00000115  00000+0 -63414-4 0  9994
2 32266  51.9906  23.3977 0000899 226.6239 304.4884 12.62837641844038
GLOBALSTAR M079         
1 37188U 10054A   26012.84569927 -.00000087  00000+0  93921-4 0  9991
2 37188  52.0013 221.5537 0001181  69.4175 304.2328 12.62269911702930
GLOBALSTAR M074         
1 37189U 10054B   26012.87221050 -.00000077  00000+0  15045-3 0  9996
2 37189  51.9991 220.7635 0001184  85.8887 287.6889 12.62265404703546
GLOBALSTAR M076         
1 37190U 10054C   26012.81956417 -.00000067  00000+0  20368-3 0  9997
2 37190  52.0004 221.1143 0001307  80.4253 293.0845 12.62269375703251
GLOBALSTAR M077         
1 37191U 10054D   26012.85659451 -.00000049  00000+0  52615-3 0  9990
2 37191  51.9940 213.8233 0001724  76.5874 297.0058 11.68177496702992
GLOBALSTAR M075         
1 37192U 10054E   26012.75958819 -.00000083  00000+0  11588-3 0  9992
2 37192  51.9941 263.4370 0000815  68.7576 333.3818 12.62263466702311
GLOBALSTAR M073         
1 37193U 10054F   26012.86632156 -.00000084  00000+0  10907-3 0  9993
2 37193  52.0038 177.0912 0001224  87.4290  78.0501 12.62268967704314
GLOBALSTAR M083         
1 37739U 11033A   26012.80122845 -.00000101  00000+0  15833-4 0  9994
2 37739  51.9852 125.7302 0000911  97.7180  73.6817 12.62266483673327
GLOBALSTAR M088         
1 37740U 11033B   26012.28017432 -.00000096  00000+0  41705-4 0  9993
2 37740  52.0234  33.3664 0000285 128.6294 313.4223 12.62271541668808
GLOBALSTAR M091         
1 37741U 11033C   26012.70896531 -.00000094  00000+0  52511-4 0  9991
2 37741  52.0025 355.2589 0000259  38.0409 132.5246 12.62268561669648
GLOBALSTAR M085         
1 37742U 11033D   26012.82426332 -.00000086  00000+0  98458-4 0  9994
2 37742  52.0150 306.0651 0000656  34.9333   0.3841 12.62268030670178
GLOBALSTAR M081         
1 37743U 11033E   26012.76651919 -.00000091  00000+0  69513-4 0  9995
2 37743  51.9977 308.8515 0000749  50.3320 323.5819 12.62271718670312
GLOBALSTAR M089         
1 37744U 11033F   26012.73389935 -.00000093  00000+0  58460-4 0  9990
2 37744  51.9925 263.1415 0001021  83.6835 321.5808 12.62263443671157
GLOBALSTAR M084         
1 38040U 11080A   26012.58174922 -.00000104  00000+0 -55602-6 0  9994
2 38040  52.0001 131.0010 0001169 115.0169 257.8553 12.62267101649115
GLOBALSTAR M080         
1 38041U 11080B   26012.74501398 -.00000107  00000+0 -20014-4 0  9994
2 38041  52.0052 132.1686 0000446 117.3586  47.5375 12.62265416649256
GLOBALSTAR M082         
1 38042U 11080C   26012.67224609 -.00000102  00000+0  74503-5 0  9991
2 38042  52.0083  87.8753 0000324 129.2633 354.5460 12.62266580649958
GLOBALSTAR M092         
1 38043U 11080D   26012.80737935 -.00000080  00000+0  13233-3 0  9994
2 38043  52.0060 177.8510 0001034  96.3391  41.6888 12.62269340648425
GLOBALSTAR M090         
1 38044U 11080E   26012.62621911 -.00000099  00000+0  26868-4 0  9990
2 38044  52.0128  81.9216 0000544 107.0108  46.3419 12.62265774650062
GLOBALSTAR M086         
1 38045U 11080F   26012.64295411 -.00000102  00000+0  10754-4 0  9997
2 38045  51.9907  82.0538 0001521  81.0224  39.9807 12.62282024650012
GLOBALSTAR M097         
1 39072U 13005A   26012.64481823 -.00000094  00000+0  55838-4 0  9993
2 39072  52.0070 356.8195 0000462  55.9742 304.1168 12.62268114597263
GLOBALSTAR M093         
1 39073U 13005B   26012.61865621 -.00000092  00000+0  64497-4 0  9992
2 39073  52.0128 350.1881 0000644  34.8274 325.2635 12.62271557597218
GLOBALSTAR M094         
1 39074U 13005C   26012.85617769 -.00000080  00000+0  13382-3 0  9990
2 39074  51.9952 263.7395 0001015  55.0097 305.0865 12.62265972598858
GLOBALSTAR M096         
1 39075U 13005D   26012.86915159 -.00000090  00000+0  78873-4 0  9994
2 39075  52.0094 312.3755 0000700  37.2344 322.8572 12.62269942597779
GLOBALSTAR M078         
1 39076U 13005E   26012.76389192  .00000011  00000+0  63894-3 0  9994
2 39076  51.9886  36.9212 0000524 281.5235  78.5572 12.62273919596381
GLOBALSTAR M095         
1 39077U 13005F   26012.79026802 -.00000099  00000+0  28444-4 0  9994
2 39077  52.0094  34.2245 0000245   5.9552 354.1318 12.62267749596242
GLOBALSTAR M087         
1 52888U 22064A   26012.80341693 -.00000089  00000+0  83406-4 0  9992
2 52888  51.9970 175.5108 0000996  83.4082 276.6898 12.62262321171518
